1 27424U 02022A   12276.35704557  .00001198  00000-0  27613-3 0  4467
2 27424 098.2056 215.2674 0001512 088.8923 271.2307 14.57089410553975